{"spkid": "50639572", "covariance": {"elements": [{"sigma": 1.41989621929715e-08, "name": "e", "units": null, "value": ".103634408292767", "title": "eccentricity", "label": "e"}, {"sigma": 1.67800842865021e-08, "name": "q", "units": "au", "value": "1.04071108460114", "title": "perihelion distance", "label": "q"}, {"title": "time of perihelion passage", "value": "2456434.573030563634", "units": "TDB", "name": "tp", "sigma": 3.40470519028544e-05, "label": "tp"}, {"units": "deg", "title": "longitude of the ascending node", "value": "203.2965500428861", "name": "om", "sigma": 5.71551631950041e-05, "label": "node"}, {"label": "peri", "units": "deg", "value": "37.40079062801549", "title": "argument of perihelion", "sigma": 6.97120717568219e-05, "name": "w"}, {"name": "i", "sigma": 1.64626928117676e-06, "units": "deg", "title": "inclination", "value": "1.686510296212934", "label": "i"}], "data": [["2.016105273574349E-16", "-2.371947066211512E-16", "-1.15477984008228E-13", "9.711964522014542E-14", "-2.153975540231759E-13", "-3.712058895407147E-15"], ["-2.371947066211512E-16", "2.815712286621145E-16", "1.249088934869971E-13", "-1.157065601205728E-13", "2.446702135963176E-13", "4.884746966339764E-15"], ["-1.15477984008228E-13", "1.249088934869971E-13", "1.159201743275659E-9", "-2.778959050786952E-10", "1.385050868957168E-9", "-3.632708958311467E-11"], ["9.711964522014542E-14", "-1.157065601205728E-13", "-2.778959050786952E-10", "3.266712679847552E-9", "-3.534152049100315E-9", "4.567158005977166E-11"], ["-2.153975540231759E-13", "2.446702135963176E-13", "1.385050868957168E-9", "-3.534152049100315E-9", "4.859772948628288E-9", "-8.004701772269695E-11"], ["-3.712058895407147E-15", "4.884746966339764E-15", "-3.632708958311467E-11", "4.567158005977166E-11", "-8.004701772269695E-11", "2.710202546146242E-12"]], "labels": ["e", "q", "tp", "node", "peri", "i"], "epoch": "2456534.5"}, "elements": [{"label": "e", "title": "eccentricity", "value": ".1062626952718036", "units": null, "name": "e", "sigma": "1.5308E-8"}, {"title": "semi-major axis", "value": "1.164737605044391", "units": "au", "name": "a", "sigma": "2.0396E-9", "label": "a"}, {"value": "1.040969447847949", "title": "perihelion distance", "units": "au", "sigma": "1.641E-8", "name": "q", "label": "q"}, {"label": "i", "sigma": "1.6456E-6", "name": "i", "units": "deg", "title": "inclination; angle with respect to x-y ecliptic plane", "value": "1.668026173935198"}, {"name": "om", "sigma": "5.8326E-5", "units": "deg", "title": "longitude of the ascending node", "value": "202.0794065148182", "label": "node"}, {"label": "peri", "value": "39.68380419817726", "title": "argument of perihelion", "units": "deg", "sigma": "7.1374E-5", "name": "w"}, {"label": "M", "units": "deg", "value": "143.8166052750129", "title": "mean anomaly", "sigma": "2.7966E-5", "name": "ma"}, {"units": "TDB", "title": "time of perihelion passage", "value": "2461017.079824143179", "name": "tp", "sigma": "3.5507E-5", "label": "tp"}, {"name": "per", "sigma": "1.206E-6", "units": "d", "title": "sidereal orbital period", "value": "459.1351824929217", "label": "period"}, {"units": "deg/d", "value": ".7840828011596563", "title": "mean motion", "name": "n", "sigma": "2.0595E-9", "label": "n"}, {"units": "au", "value": "1.288505762240834", "title": "aphelion distance", "sigma": "2.2563E-9", "name": "ad", "label": "Q"}], "epoch": "2461200.5"}